*******************************************************************************
Ephemeris / WWW_USER Mon Mar 24 08:43:10 2025 Pasadena, USA      / Horizons    
*******************************************************************************
Target body name: (2018 OZ)                       {source: JPL#6}
Center body name: Earth (399)                     {source: DE441}
Center-site name: Mauna Kea
*******************************************************************************
Start time      : A.D. 2019-Jan-08 04:08:00.0000 UT      
Stop  time      : A.D. 2019-Jan-08 16:48:00.0000 UT      
Step-size       : 1 minutes
*******************************************************************************
Target pole/equ : undefined
Target radii    : undefined                                                    
Center geodetic : 204.5278, 19.8260847, 4.21024   {E-lon(deg),Lat(deg),Alt(km)}
Center cylindric: 204.5278, 6006.35451, 2151.0229 {E-lon(deg),Dxy(km),Dz(km)}
Center pole/equ : ITRF93                          {East-longitude positive}
Center radii    : 6378.137, 6378.137, 6356.752 km {Equator_a, b, pole_c}       
Target primary  : Sun
Vis. interferer : MOON (R_eq= 1737.400) km        {source: DE441}
Rel. light bend : Sun                             {source: DE441}
Rel. lght bnd GM: 1.3271E+11 km^3/s^2                                          
Small-body perts: Yes                             {source: SB441-N16}
Atmos refraction: NO (AIRLESS)
RA format       : HMS
Time format     : CAL 
Calendar mode   : Mixed Julian/Gregorian
RTS-only print  : NO       
EOP file        : eop.250321.p250617                                           
EOP coverage    : DATA-BASED 1962-JAN-20 TO 2025-MAR-21. PREDICTS-> 2025-JUN-16
Units conversion: 1 au= 149597870.700 km, c= 299792.458 km/s, 1 day= 86400.0 s 
Table cut-offs 1: Elevation (-90.0deg=NO ),Airmass (>38.000=NO), Daylight (YES)
Table cut-offs 2: Solar elongation (  0.0,180.0=NO ),Local Hour Angle( 0.0=NO )
Table cut-offs 3: RA/DEC angular rate (     0.0=NO )                           
*******************************************************************************
Initial IAU76/J2000 heliocentric ecliptic osculating elements (au, days, deg.):
  EPOCH=  2458323.5 ! 2018-Jul-24.00 (TDB)         Residual RMS= .14478        
   EC= .2444891433359997   QR= .7813773137930096   TP= 2458414.1453434308      
   OM= 132.5941973996665   W=  282.5797798661226   IN= 11.86066121595313       
  Equivalent ICRF heliocentric cartesian coordinates (au, au/d):
   X= 5.818664496311505E-01  Y=-8.413793559776328E-01  Z=-3.233166781784031E-01
  VX= 1.092981696788880E-02 VY= 1.198494789184266E-02 VZ= 1.554952570596135E-03
Asteroid physical parameters (km, seconds, rotational period in hours):        
   GM= n.a.                RAD= n.a.               ROTPER= n.a.                
   H= 24.9                 G= .150                 B-V= n.a.                   
                           ALBEDO= n.a.            STYP= n.a.                  
*******************************************************************************
 Date__(UT)__HR:MN     R.A._________(ICRF)_________DEC
******************************************************
$$SOE
 2019-Jan-08 04:08 Cm  14 36 59.374981 -09 09 54.59848
 2019-Jan-08 04:09 Cm  14 36 59.505800 -09 09 54.59053
 2019-Jan-08 04:10 Cm  14 36 59.636625 -09 09 54.58261
 2019-Jan-08 04:11 Cm  14 36 59.767454 -09 09 54.57471
 2019-Jan-08 04:12 Cm  14 36 59.898288 -09 09 54.56683
 2019-Jan-08 04:13 Cm  14 37 00.029128 -09 09 54.55898
 2019-Jan-08 04:14 Cm  14 37 00.159972 -09 09 54.55115
 2019-Jan-08 04:15 Cm  14 37 00.290821 -09 09 54.54335
 2019-Jan-08 04:16 Cm  14 37 00.421675 -09 09 54.53557
 2019-Jan-08 04:17 Cm  14 37 00.552534 -09 09 54.52782
 2019-Jan-08 04:18 Cm  14 37 00.683398 -09 09 54.52009
 2019-Jan-08 04:19 Cm  14 37 00.814266 -09 09 54.51238
 2019-Jan-08 04:20 Cm  14 37 00.945139 -09 09 54.50470
 2019-Jan-08 04:21 Cm  14 37 01.076016 -09 09 54.49704
 2019-Jan-08 04:22 Cm  14 37 01.206898 -09 09 54.48940
 2019-Jan-08 04:23 Nm  14 37 01.337784 -09 09 54.48180
 2019-Jan-08 04:24 Nm  14 37 01.468675 -09 09 54.47421
 2019-Jan-08 04:25 Nm  14 37 01.599571 -09 09 54.46665
 2019-Jan-08 04:26 Nm  14 37 01.730470 -09 09 54.45911
 2019-Jan-08 04:27 Nm  14 37 01.861374 -09 09 54.45160
 2019-Jan-08 04:28 Nm  14 37 01.992282 -09 09 54.44412
 2019-Jan-08 04:29 Nm  14 37 02.123194 -09 09 54.43665
 2019-Jan-08 04:30 Nm  14 37 02.254110 -09 09 54.42922
 2019-Jan-08 04:31 Nm  14 37 02.385030 -09 09 54.42180
 2019-Jan-08 04:32 Nm  14 37 02.515955 -09 09 54.41442
 2019-Jan-08 04:33 Nm  14 37 02.646883 -09 09 54.40705
 2019-Jan-08 04:34 Nm  14 37 02.777815 -09 09 54.39972
 2019-Jan-08 04:35 Nm  14 37 02.908751 -09 09 54.39240
 2019-Jan-08 04:36 Nm  14 37 03.039691 -09 09 54.38512
 2019-Jan-08 04:37 Nm  14 37 03.170634 -09 09 54.37785
 2019-Jan-08 04:38 Nm  14 37 03.301581 -09 09 54.37062
 2019-Jan-08 04:39 Nm  14 37 03.432532 -09 09 54.36340
 2019-Jan-08 04:40 Nm  14 37 03.563487 -09 09 54.35622
 2019-Jan-08 04:41 Nm  14 37 03.694445 -09 09 54.34905
 2019-Jan-08 04:42 Nm  14 37 03.825406 -09 09 54.34192
 2019-Jan-08 04:43 Nm  14 37 03.956371 -09 09 54.33480
 2019-Jan-08 04:44 Nm  14 37 04.087339 -09 09 54.32772
 2019-Jan-08 04:45 Nm  14 37 04.218310 -09 09 54.32066
 2019-Jan-08 04:46 Nm  14 37 04.349285 -09 09 54.31362
 2019-Jan-08 04:47 Nm  14 37 04.480263 -09 09 54.30661
 2019-Jan-08 04:48 Nm  14 37 04.611244 -09 09 54.29963
 2019-Jan-08 04:49 Nm  14 37 04.742228 -09 09 54.29267
 2019-Jan-08 04:50 Am  14 37 04.873215 -09 09 54.28573
 2019-Jan-08 04:51 Am  14 37 05.004205 -09 09 54.27883
 2019-Jan-08 04:52 Am  14 37 05.135198 -09 09 54.27194
 2019-Jan-08 04:53 Am  14 37 05.266194 -09 09 54.26509
 2019-Jan-08 04:54 Am  14 37 05.397193 -09 09 54.25825
 2019-Jan-08 04:55 Am  14 37 05.528195 -09 09 54.25145
 2019-Jan-08 04:56 Am  14 37 05.659199 -09 09 54.24467
 2019-Jan-08 04:57 Am  14 37 05.790206 -09 09 54.23792
 2019-Jan-08 04:58 Am  14 37 05.921215 -09 09 54.23119
 2019-Jan-08 04:59 Am  14 37 06.052227 -09 09 54.22448
 2019-Jan-08 05:00 Am  14 37 06.183242 -09 09 54.21781
 2019-Jan-08 05:01 Am  14 37 06.314259 -09 09 54.21116
 2019-Jan-08 05:02 Am  14 37 06.445278 -09 09 54.20453
 2019-Jan-08 05:03 Am  14 37 06.576300 -09 09 54.19793
 2019-Jan-08 05:04 Am  14 37 06.707324 -09 09 54.19136
 2019-Jan-08 05:05 Am  14 37 06.838350 -09 09 54.18481
 2019-Jan-08 05:06 Am  14 37 06.969378 -09 09 54.17829
 2019-Jan-08 05:07 Am  14 37 07.100409 -09 09 54.17180
 2019-Jan-08 05:08 Am  14 37 07.231441 -09 09 54.16533
 2019-Jan-08 05:09 Am  14 37 07.362476 -09 09 54.15889
 2019-Jan-08 05:10 Am  14 37 07.493512 -09 09 54.15247
 2019-Jan-08 05:11 Am  14 37 07.624550 -09 09 54.14608
 2019-Jan-08 05:12 Am  14 37 07.755591 -09 09 54.13971
 2019-Jan-08 05:13 Am  14 37 07.886633 -09 09 54.13338
 2019-Jan-08 05:14 Am  14 37 08.017676 -09 09 54.12706
 2019-Jan-08 05:15 Am  14 37 08.148722 -09 09 54.12078
 2019-Jan-08 05:16 Am  14 37 08.279768 -09 09 54.11452
 2019-Jan-08 05:17  m  14 37 08.410817 -09 09 54.10828
 2019-Jan-08 05:18  m  14 37 08.541867 -09 09 54.10208
 2019-Jan-08 05:19  m  14 37 08.672918 -09 09 54.09590
 2019-Jan-08 05:20  m  14 37 08.803971 -09 09 54.08974
 2019-Jan-08 05:21  m  14 37 08.935025 -09 09 54.08361
 2019-Jan-08 05:22  m  14 37 09.066081 -09 09 54.07751
 2019-Jan-08 05:23  m  14 37 09.197137 -09 09 54.07144
 2019-Jan-08 05:24  m  14 37 09.328195 -09 09 54.06539
 2019-Jan-08 05:25  m  14 37 09.459254 -09 09 54.05936
 2019-Jan-08 05:26  m  14 37 09.590314 -09 09 54.05337
 2019-Jan-08 05:27  m  14 37 09.721375 -09 09 54.04740
 2019-Jan-08 05:28  m  14 37 09.852437 -09 09 54.04145
 2019-Jan-08 05:29  m  14 37 09.983500 -09 09 54.03554
 2019-Jan-08 05:30  m  14 37 10.114563 -09 09 54.02965
 2019-Jan-08 05:31  m  14 37 10.245628 -09 09 54.02378
 2019-Jan-08 05:32  m  14 37 10.376693 -09 09 54.01794
 2019-Jan-08 05:33  m  14 37 10.507759 -09 09 54.01213
 2019-Jan-08 05:34  m  14 37 10.638825 -09 09 54.00635
 2019-Jan-08 05:35  m  14 37 10.769892 -09 09 54.00059
 2019-Jan-08 05:36  m  14 37 10.900959 -09 09 53.99486
 2019-Jan-08 05:37  m  14 37 11.032027 -09 09 53.98915
 2019-Jan-08 05:38  m  14 37 11.163096 -09 09 53.98347
 2019-Jan-08 05:39  m  14 37 11.294164 -09 09 53.97782
 2019-Jan-08 05:40  m  14 37 11.425233 -09 09 53.97219
 2019-Jan-08 05:41  m  14 37 11.556302 -09 09 53.96660
 2019-Jan-08 05:42  m  14 37 11.687371 -09 09 53.96102
 2019-Jan-08 05:43  m  14 37 11.818441 -09 09 53.95548
 2019-Jan-08 05:44  m  14 37 11.949510 -09 09 53.94996
 2019-Jan-08 05:45  m  14 37 12.080579 -09 09 53.94446
 2019-Jan-08 05:46  m  14 37 12.211649 -09 09 53.93900
 2019-Jan-08 05:47  m  14 37 12.342718 -09 09 53.93356
 2019-Jan-08 05:48  m  14 37 12.473787 -09 09 53.92814
 2019-Jan-08 05:49  m  14 37 12.604856 -09 09 53.92276
 2019-Jan-08 05:50     14 37 12.735924 -09 09 53.91740
 2019-Jan-08 05:51     14 37 12.866992 -09 09 53.91206
 2019-Jan-08 05:52     14 37 12.998060 -09 09 53.90675
 2019-Jan-08 05:53     14 37 13.129127 -09 09 53.90147
 2019-Jan-08 05:54     14 37 13.260194 -09 09 53.89622
 2019-Jan-08 05:55     14 37 13.391260 -09 09 53.89099
 2019-Jan-08 05:56     14 37 13.522326 -09 09 53.88579
 2019-Jan-08 05:57     14 37 13.653391 -09 09 53.88062
 2019-Jan-08 05:58     14 37 13.784455 -09 09 53.87547
 2019-Jan-08 05:59     14 37 13.915518 -09 09 53.87035
 2019-Jan-08 06:00     14 37 14.046581 -09 09 53.86525
 2019-Jan-08 06:01     14 37 14.177642 -09 09 53.86018
 2019-Jan-08 06:02     14 37 14.308703 -09 09 53.85514
 2019-Jan-08 06:03     14 37 14.439763 -09 09 53.85012
 2019-Jan-08 06:04     14 37 14.570821 -09 09 53.84514
 2019-Jan-08 06:05     14 37 14.701879 -09 09 53.84017
 2019-Jan-08 06:06     14 37 14.832935 -09 09 53.83524
 2019-Jan-08 06:07     14 37 14.963990 -09 09 53.83033
 2019-Jan-08 06:08     14 37 15.095044 -09 09 53.82544
 2019-Jan-08 06:09     14 37 15.226096 -09 09 53.82059
 2019-Jan-08 06:10     14 37 15.357147 -09 09 53.81576
